     2.100          NAVIGATION                              RINEX VERSION / TYPE
fic2rin                                 04/05/2016 00:04:21 PGM / RUN BY / DATE
                                                            END OF HEADER
15 16  4  4  2  0  0.0 -.304834917188D-03 -.170530256582D-11  .000000000000D+00
     .630000000000D+02  .399687500000D+02  .556451749877D-08  .241433513516D+01
     .204518437386D-05  .809037336148D-02  .482797622681D-05  .515355960464D+04
     .936000000000D+05 -.115483999252D-06  .748885056469D+00 -.838190317154D-07
     .931202740606D+00  .271718750000D+03  .481114595417D+00 -.867464704815D-08
     .221080637467D-09  .100000000000D+01  .189100000000D+04  .000000000000D+00
     .240000000000D+01  .000000000000D+00 -.107102096081D-07  .630000000000D+02
     .864060000000D+05  .400000000000D+01
16 16  4  4  2  0  0.0 -.271773897111D-04  .284217094304D-11  .000000000000D+00
     .110000000000D+02  .672187500000D+02  .376194241429D-08 -.208547008301D+01
     .316463410854D-05  .873776525259D-02  .114999711514D-04  .515374003983D+04
     .936000000000D+05  .106170773506D-06  .297213114766D+01 -.189989805222D-06
     .991142063834D+00  .173000000000D+03  .353415620471D+00 -.767460539241D-08
     .408231290186D-09  .100000000000D+01  .189100000000D+04  .000000000000D+00
     .240000000000D+01  .000000000000D+00 -.102445483208D-07  .110000000000D+02
     .864060000000D+05  .400000000000D+01
18 16  4  4  2  0  0.0  .500799622387D-03  .409272615798D-11  .000000000000D+00
     .890000000000D+02  .265000000000D+02  .511092717635D-08 -.145169008353D+01
     .142306089401D-05  .169447518419D-01  .121984630823D-04  .515367485046D+04
     .936000000000D+05  .361353158951D-06 -.270584603415D+00  .400468707085D-06
     .925442911749D+00  .124312500000D+03 -.190025848066D+01 -.825641534141D-08
     .184293390845D-09  .100000000000D+01  .189100000000D+04  .000000000000D+00
     .240000000000D+01  .000000000000D+00 -.111758708954D-07  .890000000000D+02
     .864060000000D+05  .400000000000D+01
19 16  4  4  2  0  0.0 -.525544397533D-03 -.113686837722D-12  .000000000000D+00
     .540000000000D+02  .946875000000D+01  .479019953104D-08  .122531620597D+00
     .629574060440D-06  .107449672651D-01  .311806797981D-05  .515360570145D+04
     .936000000000D+05  .111758708954D-07 -.224035241215D+01  .987201929092D-07
     .972733144526D+00  .325281250000D+03  .735123055477D+00 -.857178562071D-08
     .339299847486D-10  .100000000000D+01  .189100000000D+04  .000000000000D+00
     .240000000000D+01  .000000000000D+00 -.153668224812D-07  .540000000000D+02
     .864060000000D+05  .400000000000D+01
20 16  4  4  2  0  0.0  .403676182032D-03  .250111042988D-11  .000000000000D+00
     .410000000000D+02  .167500000000D+02  .504235289138D-08  .249841461821D+01
     .806525349617D-06  .469842378516D-02  .121183693409D-04  .515372090912D+04
     .936000000000D+05  .838190317154D-07 -.322463439668D+00  .316649675369D-07
     .926677984726D+00  .125750000000D+03  .135446738312D+01 -.820677041636D-08
     .206437170365D-09  .100000000000D+01  .189100000000D+04  .000000000000D+00
     .240000000000D+01  .000000000000D+00 -.838190317154D-08  .410000000000D+02
     .864060000000D+05  .400000000000D+01
21 16  4  4  2  0  0.0 -.517654698342D-03 -.159161572810D-11  .000000000000D+00
     .540000000000D+02 -.957812500000D+02  .537808116152D-08 -.583497167353D+00
    -.491179525852D-05  .233467278304D-01  .805780291557D-05  .515364139557D+04
     .936000000000D+05 -.216066837311D-06 -.131273799308D+01  .204890966415D-06
     .935707406232D+00  .212125000000D+03 -.180810114141D+01 -.903930509477D-08
    -.410017078857D-09  .100000000000D+01  .189100000000D+04  .000000000000D+00
     .240000000000D+01  .000000000000D+00 -.116415321827D-07  .540000000000D+02
     .864060000000D+05  .400000000000D+01
22 16  4  4  2  0  0.0  .369335990399D-03 -.716227077646D-11  .000000000000D+00
     .570000000000D+02  .587500000000D+01  .508056876894D-08  .311548109755D+01
     .242143869400D-06  .784066074993D-02  .119637697935D-04  .515506120682D+04
     .936000000000D+05  .968575477600D-07 -.269853865594D+00 -.949949026108D-07
     .923311334777D+00  .125687500000D+03 -.200093313231D+01 -.811533803640D-08
     .211080220910D-09  .100000000000D+01  .189100000000D+04  .000000000000D+00
     .240000000000D+01  .000000000000D+00 -.176951289177D-07  .570000000000D+02
     .864060000000D+05  .400000000000D+01
23 16  4  4  2  0  0.0 -.167768914253D-03 -.170530256582D-11  .000000000000D+00
     .410000000000D+02  .432187500000D+02  .521771733887D-08  .198134730419D+01
     .216811895370D-05  .106722584460D-01  .491365790367D-05  .515369635963D+04
     .936000000000D+05 -.244006514549D-06  .805882730856D+00  .391155481339D-07
     .946359047356D+00  .279625000000D+03 -.259892683914D+01 -.856571393922D-08
     .182507602174D-09  .100000000000D+01  .189100000000D+04  .000000000000D+00
     .240000000000D+01  .000000000000D+00 -.200234353542D-07  .410000000000D+02
     .864060000000D+05  .400000000000D+01
24 16  4  4  2  0  0.0 -.149589031935D-04 -.568434188608D-12  .000000000000D+00
     .101000000000D+03 -.380000000000D+02  .487841749138D-08  .136762046640D+01
    -.212155282497D-05  .439296220429D-02  .836700201035D-05  .515362589836D+04
     .936000000000D+05  .521540641785D-07  .183232295254D+01  .763684511185D-07
     .949763800469D+00  .211437500000D+03  .402738645213D+00 -.832427531091D-08
    -.469662420468D-09  .100000000000D+01  .189100000000D+04  .000000000000D+00
     .240000000000D+01  .000000000000D+00  .232830643654D-08  .101000000000D+03
     .864060000000D+05  .400000000000D+01
25 16  4  4  2  0  0.0 -.146490521729D-03 -.704858393874D-11  .000000000000D+00
     .790000000000D+02  .734687500000D+02  .407981279772D-08 -.578159053891D+00
     .389665365219D-05  .548251310829D-02  .109896063805D-04  .515377940178D+04
     .936000000000D+05  .465661287308D-07  .290312741578D+01  .875443220139D-07
     .978875792712D+00  .180375000000D+03  .734891013263D+00 -.792425864861D-08
     .277154401736D-09  .100000000000D+01  .189100000000D+04  .000000000000D+00
     .240000000000D+01  .000000000000D+00  .558793544769D-08  .790000000000D+02
     .864060000000D+05  .400000000000D+01
27 16  4  4  2  0  0.0  .786227174103D-04  .386535248253D-11  .000000000000D+00
     .110000000000D+02  .362500000000D+02  .479948563213D-08 -.296954586566D+01
     .183098018169D-05  .346959882881D-02  .358186662197D-05  .515363289833D+04
     .936000000000D+05 -.121071934700D-06 -.233886649033D+01  .000000000000D+00
     .970653619642D+00  .316625000000D+03  .225747144440D+00 -.838284917932D-08
     .203937066226D-09  .100000000000D+01  .189100000000D+04  .000000000000D+00
     .240000000000D+01  .000000000000D+00  .139698386192D-08  .110000000000D+02
     .864060000000D+05  .400000000000D+01
28 16  4  4  2  0  0.0  .513738486916D-03  .261479726760D-11  .000000000000D+00
     .740000000000D+02  .716875000000D+02  .367729603128D-08 -.224374512837D+01
     .377930700779D-05  .197695741663D-01  .104345381260D-04  .515363269997D+04
     .936000000000D+05  .217929482460D-06  .297714023914D+01  .169500708580D-06
     .989836089069D+00  .187531250000D+03 -.161784313732D+01 -.737566436888D-08
     .377158567311D-09  .100000000000D+01  .189100000000D+04  .000000000000D+00
     .340000000000D+01  .000000000000D+00 -.107102096081D-07  .740000000000D+02
     .864060000000D+05  .400000000000D+01
29 16  4  4  2  0  0.0  .656620133668D-03  .454747350886D-12  .000000000000D+00
     .500000000000D+02  .109062500000D+02  .478305637635D-08 -.540422972317D+00
     .650063157082D-06  .105874473229D-02  .320002436638D-05  .515358648109D+04
     .936000000000D+05 -.223517417908D-07 -.227960413830D+01  .167638063431D-07
     .976622221538D+00  .328968750000D+03 -.431730735227D+00 -.845320925295D-08
     .156792245312D-09  .100000000000D+01  .189100000000D+04  .000000000000D+00
     .240000000000D+01  .000000000000D+00 -.102445483208D-07  .500000000000D+02
     .864060000000D+05  .400000000000D+01
30 16  4  4  2  0  0.0  .113320071250D-03  .363797880709D-11  .000000000000D+00
     .460000000000D+02 -.426562500000D+02  .467698052930D-08  .579474239188D+00
    -.219047069550D-05  .185975816566D-02  .865384936333D-05  .515362277412D+04
     .936000000000D+05  .931322574615D-08  .192351305425D+01  .428408384323D-07
     .952491860343D+00  .209250000000D+03  .297905628147D+01 -.822962851135D-08
    -.356086260993D-09  .100000000000D+01  .189100000000D+04  .000000000000D+00
     .240000000000D+01  .000000000000D+00  .325962901115D-08  .460000000000D+02
     .864060000000D+05  .400000000000D+01
31 16  4  4  2  0  0.0  .275393016636D-03 -.170530256582D-11  .000000000000D+00
     .410000000000D+02 -.447187500000D+02  .435911014586D-08  .350277242796D+00
    -.220537185669D-05  .824651238509D-02  .911951065063D-05  .515372046280D+04
     .936000000000D+05  .949949026108D-07  .188770838149D+01 -.154599547386D-06
     .971516963673D+00  .206437500000D+03 -.406261318300D+00 -.814819654795D-08
    -.404659712844D-09  .100000000000D+01  .189100000000D+04  .000000000000D+00
     .240000000000D+01  .000000000000D+00 -.135041773319D-07  .410000000000D+02
     .864060000000D+05  .400000000000D+01
32 16  4  4  2  0  0.0  .796793028712D-05 -.204636307899D-11  .000000000000D+00
     .100000000000D+02  .354687500000D+02  .479662837025D-08 -.265261726829D+01
     .187568366528D-05  .120759010315D-03  .525079667568D-05  .515357669830D+04
     .936000000000D+05 -.745058059692D-07  .801281631133D+00  .558793544769D-07
     .960023407343D+00  .278875000000D+03 -.239919348831D+01 -.828355932921D-08
     .263939565571D-09  .100000000000D+01  .189100000000D+04  .000000000000D+00
     .240000000000D+01  .000000000000D+00  .279396772385D-08  .100000000000D+02
     .864060000000D+05  .400000000000D+01
